CCSDS_OMM_VERS = 2.0
CREATION_DATE  = 
ORIGINATOR     = 

OBJECT_NAME    = STARLINK-34733
OBJECT_ID      = 2025-263C
CENTER_NAME    = EARTH
REF_FRAME      = TEME
TIME_SYSTEM    = UTC
MEAN_ELEMENT_THEORY = SGP/SGP4

EPOCH          = 2025-12-04T14:00:01.000224
MEAN_MOTION    = 15.66780100
ECCENTRICITY   = .00016357
INCLINATION    = 42.9989
RA_OF_ASC_NODE = 173.1245
ARG_OF_PERICENTER = 258.8643
MEAN_ANOMALY   = 55.6419

EPHEMERIS_TYPE = 0
CLASSIFICATION_TYPE = U
NORAD_CAT_ID   = 66487
ELEMENT_SET_NO = 999
REV_AT_EPOCH   = 432
BSTAR          = -.21131499E-1
MEAN_MOTION_DOT = -.2016602E-1
MEAN_MOTION_DDOT = 0

CCSDS_OMM_VERS = 2.0
CREATION_DATE  = 
ORIGINATOR     = 

OBJECT_NAME    = STARLINK-35515
OBJECT_ID      = 2025-263D
CENTER_NAME    = EARTH
REF_FRAME      = TEME
TIME_SYSTEM    = UTC
MEAN_ELEMENT_THEORY = SGP/SGP4

EPOCH          = 2025-12-04T18:00:02.000160
MEAN_MOTION    = 15.66053413
ECCENTRICITY   = .0001198
INCLINATION    = 42.9987
RA_OF_ASC_NODE = 172.1233
ARG_OF_PERICENTER = 273.6369
MEAN_ANOMALY   = 263.8304

EPHEMERIS_TYPE = 0
CLASSIFICATION_TYPE = U
NORAD_CAT_ID   = 66488
ELEMENT_SET_NO = 999
REV_AT_EPOCH   = 435
BSTAR          = -.22004E-1
MEAN_MOTION_DOT = -.2035376E-1
MEAN_MOTION_DDOT = 0

CCSDS_OMM_VERS = 2.0
CREATION_DATE  = 
ORIGINATOR     = 

OBJECT_NAME    = STARLINK-35696
OBJECT_ID      = 2025-263E
CENTER_NAME    = EARTH
REF_FRAME      = TEME
TIME_SYSTEM    = UTC
MEAN_ELEMENT_THEORY = SGP/SGP4

EPOCH          = 2025-12-04T18:00:02.000160
MEAN_MOTION    = 15.66052097
ECCENTRICITY   = .0001234
INCLINATION    = 42.9988
RA_OF_ASC_NODE = 172.1181
ARG_OF_PERICENTER = 267.8524
MEAN_ANOMALY   = 271.5314

EPHEMERIS_TYPE = 0
CLASSIFICATION_TYPE = U
NORAD_CAT_ID   = 66489
ELEMENT_SET_NO = 999
REV_AT_EPOCH   = 435
BSTAR          = -.21963E-1
MEAN_MOTION_DOT = -.2031932E-1
MEAN_MOTION_DDOT = 0

CCSDS_OMM_VERS = 2.0
CREATION_DATE  = 
ORIGINATOR     = 

OBJECT_NAME    = STARLINK-35693
OBJECT_ID      = 2025-263F
CENTER_NAME    = EARTH
REF_FRAME      = TEME
TIME_SYSTEM    = UTC
MEAN_ELEMENT_THEORY = SGP/SGP4

EPOCH          = 2025-12-04T18:00:02.000160
MEAN_MOTION    = 15.66049823
ECCENTRICITY   = .0001263
INCLINATION    = 42.9988
RA_OF_ASC_NODE = 172.1132
ARG_OF_PERICENTER = 267.7824
MEAN_ANOMALY   = 273.5200

EPHEMERIS_TYPE = 0
CLASSIFICATION_TYPE = U
NORAD_CAT_ID   = 66490
ELEMENT_SET_NO = 999
REV_AT_EPOCH   = 435
BSTAR          = -.21935E-1
MEAN_MOTION_DOT = -.2029572E-1
MEAN_MOTION_DDOT = 0

CCSDS_OMM_VERS = 2.0
CREATION_DATE  = 
ORIGINATOR     = 

OBJECT_NAME    = STARLINK-35663
OBJECT_ID      = 2025-263G
CENTER_NAME    = EARTH
REF_FRAME      = TEME
TIME_SYSTEM    = UTC
MEAN_ELEMENT_THEORY = SGP/SGP4

EPOCH          = 2025-12-04T18:00:02.000160
MEAN_MOTION    = 15.66051928
ECCENTRICITY   = .0001272
INCLINATION    = 42.9988
RA_OF_ASC_NODE = 172.1036
ARG_OF_PERICENTER = 267.2061
MEAN_ANOMALY   = 277.9285

EPHEMERIS_TYPE = 0
CLASSIFICATION_TYPE = U
NORAD_CAT_ID   = 66491
ELEMENT_SET_NO = 999
REV_AT_EPOCH   = 435
BSTAR          = -.21957E-1
MEAN_MOTION_DOT = -.2031537E-1
MEAN_MOTION_DDOT = 0

CCSDS_OMM_VERS = 2.0
CREATION_DATE  = 
ORIGINATOR     = 

OBJECT_NAME    = STARLINK-35673
OBJECT_ID      = 2025-263H
CENTER_NAME    = EARTH
REF_FRAME      = TEME
TIME_SYSTEM    = UTC
MEAN_ELEMENT_THEORY = SGP/SGP4

EPOCH          = 2025-12-04T18:00:02.000160
MEAN_MOTION    = 15.66053011
ECCENTRICITY   = .0001314
INCLINATION    = 42.9988
RA_OF_ASC_NODE = 172.0988
ARG_OF_PERICENTER = 265.7617
MEAN_ANOMALY   = 281.2882

EPHEMERIS_TYPE = 0
CLASSIFICATION_TYPE = U
NORAD_CAT_ID   = 66492
ELEMENT_SET_NO = 999
REV_AT_EPOCH   = 435
BSTAR          = -.21961E-1
MEAN_MOTION_DOT = -.2031932E-1
MEAN_MOTION_DDOT = 0

CCSDS_OMM_VERS = 2.0
CREATION_DATE  = 
ORIGINATOR     = 

OBJECT_NAME    = STARLINK-35597
OBJECT_ID      = 2025-263J
CENTER_NAME    = EARTH
REF_FRAME      = TEME
TIME_SYSTEM    = UTC
MEAN_ELEMENT_THEORY = SGP/SGP4

EPOCH          = 2025-12-04T18:00:02.000160
MEAN_MOTION    = 15.66052836
ECCENTRICITY   = .0001247
INCLINATION    = 42.9988
RA_OF_ASC_NODE = 172.0939
ARG_OF_PERICENTER = 268.5393
MEAN_ANOMALY   = 280.4298

EPHEMERIS_TYPE = 0
CLASSIFICATION_TYPE = U
NORAD_CAT_ID   = 66493
ELEMENT_SET_NO = 999
REV_AT_EPOCH   = 435
BSTAR          = -.2199E-1
MEAN_MOTION_DOT = -.2034221E-1
MEAN_MOTION_DDOT = 0

CCSDS_OMM_VERS = 2.0
CREATION_DATE  = 
ORIGINATOR     = 

OBJECT_NAME    = STARLINK-35689
OBJECT_ID      = 2025-263K
CENTER_NAME    = EARTH
REF_FRAME      = TEME
TIME_SYSTEM    = UTC
MEAN_ELEMENT_THEORY = SGP/SGP4

EPOCH          = 2025-12-04T18:00:02.000160
MEAN_MOTION    = 15.66055019
ECCENTRICITY   = .0001296
INCLINATION    = 42.9988
RA_OF_ASC_NODE = 172.1088
ARG_OF_PERICENTER = 266.9857
MEAN_ANOMALY   = 276.2299

EPHEMERIS_TYPE = 0
CLASSIFICATION_TYPE = U
NORAD_CAT_ID   = 66494
ELEMENT_SET_NO = 999
REV_AT_EPOCH   = 435
BSTAR          = -.2201E-1
MEAN_MOTION_DOT = -.2035997E-1
MEAN_MOTION_DDOT = 0

CCSDS_OMM_VERS = 2.0
CREATION_DATE  = 
ORIGINATOR     = 

OBJECT_NAME    = STARLINK-35832
OBJECT_ID      = 2025-263L
CENTER_NAME    = EARTH
REF_FRAME      = TEME
TIME_SYSTEM    = UTC
MEAN_ELEMENT_THEORY = SGP/SGP4

EPOCH          = 2025-12-04T18:00:02.000160
MEAN_MOTION    = 15.66050578
ECCENTRICITY   = .0001265
INCLINATION    = 42.9988
RA_OF_ASC_NODE = 172.0890
ARG_OF_PERICENTER = 268.8367
MEAN_ANOMALY   = 282.0511

EPHEMERIS_TYPE = 0
CLASSIFICATION_TYPE = U
NORAD_CAT_ID   = 66495
ELEMENT_SET_NO = 999
REV_AT_EPOCH   = 435
BSTAR          = -.21957E-1
MEAN_MOTION_DOT = -.2031382E-1
MEAN_MOTION_DDOT = 0

CCSDS_OMM_VERS = 2.0
CREATION_DATE  = 
ORIGINATOR     = 

OBJECT_NAME    = STARLINK-35909
OBJECT_ID      = 2025-263M
CENTER_NAME    = EARTH
REF_FRAME      = TEME
TIME_SYSTEM    = UTC
MEAN_ELEMENT_THEORY = SGP/SGP4

EPOCH          = 2025-12-04T18:00:02.000160
MEAN_MOTION    = 15.66052735
ECCENTRICITY   = .0001325
INCLINATION    = 42.9987
RA_OF_ASC_NODE = 172.0841
ARG_OF_PERICENTER = 268.9206
MEAN_ANOMALY   = 283.8821

EPHEMERIS_TYPE = 0
CLASSIFICATION_TYPE = U
NORAD_CAT_ID   = 66496
ELEMENT_SET_NO = 999
REV_AT_EPOCH   = 435
BSTAR          = -.21988E-1
MEAN_MOTION_DOT = -.2034116E-1
MEAN_MOTION_DDOT = 0

CCSDS_OMM_VERS = 2.0
CREATION_DATE  = 
ORIGINATOR     = 

OBJECT_NAME    = STARLINK-35899
OBJECT_ID      = 2025-263N
CENTER_NAME    = EARTH
REF_FRAME      = TEME
TIME_SYSTEM    = UTC
MEAN_ELEMENT_THEORY = SGP/SGP4

EPOCH          = 2025-12-04T18:00:02.000160
MEAN_MOTION    = 15.66052195
ECCENTRICITY   = .0001302
INCLINATION    = 42.9988
RA_OF_ASC_NODE = 172.0787
ARG_OF_PERICENTER = 266.4204
MEAN_ANOMALY   = 288.2992

EPHEMERIS_TYPE = 0
CLASSIFICATION_TYPE = U
NORAD_CAT_ID   = 66497
ELEMENT_SET_NO = 999
REV_AT_EPOCH   = 435
BSTAR          = -.21961E-1
MEAN_MOTION_DOT = -.2031849E-1
MEAN_MOTION_DDOT = 0

CCSDS_OMM_VERS = 2.0
CREATION_DATE  = 
ORIGINATOR     = 

OBJECT_NAME    = STARLINK-35907
OBJECT_ID      = 2025-263P
CENTER_NAME    = EARTH
REF_FRAME      = TEME
TIME_SYSTEM    = UTC
MEAN_ELEMENT_THEORY = SGP/SGP4

EPOCH          = 2025-12-04T18:00:02.000160
MEAN_MOTION    = 15.66051892
ECCENTRICITY   = .0001316
INCLINATION    = 42.9987
RA_OF_ASC_NODE = 172.0741
ARG_OF_PERICENTER = 268.7893
MEAN_ANOMALY   = 287.8483

EPHEMERIS_TYPE = 0
CLASSIFICATION_TYPE = U
NORAD_CAT_ID   = 66498
ELEMENT_SET_NO = 999
REV_AT_EPOCH   = 435
BSTAR          = -.21979E-1
MEAN_MOTION_DOT = -.2033287E-1
MEAN_MOTION_DDOT = 0

