STARLINK-34733          
1 66487U 25263C   25338.58334491 -.02016602  00000+0 -21131-1 0  9994
2 66487  42.9989 173.1245 0001635 258.8643  55.6419 15.66780100  4321
STARLINK-35515          
1 66488U 25263D   25338.75002315 -.02035376  00000+0 -22004-1 0  9990
2 66488  42.9987 172.1233 0001198 273.6369 263.8304 15.66053413  4359
STARLINK-35696          
1 66489U 25263E   25338.75002315 -.02031932  00000+0 -21963-1 0  9998
2 66489  42.9988 172.1181 0001234 267.8524 271.5314 15.66052097  4356
STARLINK-35693          
1 66490U 25263F   25338.75002315 -.02029572  00000+0 -21935-1 0  9996
2 66490  42.9988 172.1132 0001263 267.7824 273.5200 15.66049823  4357
STARLINK-35663          
1 66491U 25263G   25338.75002315 -.02031537  00000+0 -21957-1 0  9995
2 66491  42.9988 172.1036 0001272 267.2061 277.9285 15.66051928  4359
STARLINK-35673          
1 66492U 25263H   25338.75002315 -.02031932  00000+0 -21961-1 0  9990
2 66492  42.9988 172.0988 0001314 265.7617 281.2882 15.66053011  4358
STARLINK-35597          
1 66493U 25263J   25338.75002315 -.02034221  00000+0 -21990-1 0  9997
2 66493  42.9988 172.0939 0001247 268.5393 280.4298 15.66052836  4358
STARLINK-35689          
1 66494U 25263K   25338.75002315 -.02035997  00000+0 -22010-1 0  9993
2 66494  42.9988 172.1088 0001296 266.9857 276.2299 15.66055019  4356
STARLINK-35832          
1 66495U 25263L   25338.75002315 -.02031382  00000+0 -21957-1 0  9997
2 66495  42.9988 172.0890 0001265 268.8367 282.0511 15.66050578  4357
STARLINK-35909          
1 66496U 25263M   25338.75002315 -.02034116  00000+0 -21988-1 0  9990
2 66496  42.9987 172.0841 0001325 268.9206 283.8821 15.66052735  4353
STARLINK-35899          
1 66497U 25263N   25338.75002315 -.02031849  00000+0 -21961-1 0  9992
2 66497  42.9988 172.0787 0001302 266.4204 288.2992 15.66052195  4358
STARLINK-35907          
1 66498U 25263P   25338.75002315 -.02033287  00000+0 -21979-1 0  9990
2 66498  42.9987 172.0741 0001316 268.7893 287.8483 15.66051892  4355
